OBJECT_NAME,OBJECT_ID,EPOCH,MEAN_MOTION,ECCENTRICITY,INCLINATION,RA_OF_ASC_NODE,ARG_OF_PERICENTER,MEAN_ANOMALY,EPHEMERIS_TYPE,CLASSIFICATION_TYPE,NORAD_CAT_ID,ELEMENT_SET_NO,REV_AT_EPOCH,BSTAR,MEAN_MOTION_DOT,MEAN_MOTION_DDOT
PERSEUS-M1,2014-033AF,2026-06-30T19:37:46.763040,14.95677159,.00099965,97.9649,126.1740,250.1954,109.8189,0,U,40039,999,65267,.12171915E-3,.1294E-4,0
POLYITAN-1,2014-033AJ,2026-07-01T00:23:30.333984,15.33748213,.0008765,98.0934,209.5896,103.7335,256.4882,0,U,40042,999,65571,.75688E-3,.24693E-3,0
TIGRISAT,2014-033AK,2026-07-01T01:29:18.708576,14.85211339,.0049817,97.7848,331.7571,30.6226,329.7880,0,U,40043,999,64768,.22092E-3,.1881E-4,0
AEROCUBE 6A,2014-033AM,2026-07-01T04:23:27.354336,14.98227358,.0037881,97.7226,348.9843,329.2226,30.6775,0,U,40045,999,64871,.50625E-3,.6042E-4,0
AEROCUBE 6B,2014-033AN,2026-07-01T00:55:01.147872,14.99688243,.0037764,97.7224,348.6626,320.5407,39.3066,0,U,40046,999,64883,.46548E-3,.5767E-4,0
CANX-4,2014-034C,2026-07-01T03:14:01.790016,14.81290098,.001211,98.3104,57.9588,332.0685,27.9875,0,U,40055,999,64659,.14105E-3,.1044E-4,0
CANX-5,2014-034D,2026-07-01T03:11:32.371584,14.81307390,.0012115,98.3105,58.0014,332.2670,27.7894,0,U,40056,999,63740,.1411E-3,.1045E-4,0
UKUBE-1,2014-037F,2026-06-30T23:37:38.112096,15.13760861,.0003194,98.4232,186.7078,110.8073,249.3498,0,U,40074,999,65064,.49444E-3,.8844E-4,0
BRITE-PL2 (HEWELIUSZ),2014-049B,2026-07-01T02:20:27.500928,14.94644692,.0015147,97.9111,294.2059,65.9668,294.3135,0,U,40119,999,64352,.16817E-3,.1766E-4,0
AEROCUBE 5C,2015-058B,2026-06-30T10:43:46.882560,14.91505798,.0131416,64.7655,221.3382,58.0990,303.2827,0,U,40965,999,36763,.18614365E-3,.2025E-4,0
AEROCUBE 7,2015-058C,2026-07-01T03:22:52.381920,14.95809871,.0121152,64.7599,201.1068,56.1912,305.0667,0,U,40966,999,36804,.33996E-3,.4232E-4,0
FOX-1A (AO-85),2015-058D,2026-06-30T18:24:50.359392,14.91024498,.0131307,64.7740,236.7799,51.3115,309.9655,0,U,40967,999,11559,.18979989E-3,.204E-4,0
SINOD-D 1,2015-058E,2026-06-30T12:22:20.343072,14.95981461,.01199547,64.7731,217.1713,47.8242,313.2983,0,U,40968,999,11865,.26011595E-3,.3198E-4,0
SNAP-3 ALICE,2015-058G,2026-07-01T00:07:37.987392,15.63615717,.0023932,64.7501,56.0494,1.3361,358.7846,0,U,40970,999,11904,.16626E-2,.160671E-2,0
LMRST-SAT,2015-058H,2026-06-30T12:35:39.580224,14.90640261,.01328863,64.7747,233.8969,53.4236,307.9018,0,U,40971,999,11554,.18094132E-3,.1923E-4,0
SNAP-3 EDDIE,2015-058J,2026-06-30T14:25:27.136992,15.64697747,.00247738,64.7412,48.0788,5.0851,355.0544,0,U,40972,999,12112,.14082149E-2,.141841E-2,0
PROPCUBE 3,2015-058K,2026-06-30T12:39:40.856544,14.94323629,.01248309,64.7666,210.8535,54.6546,306.6159,0,U,40973,999,11679,.2413501E-3,.2853E-4,0
BISONSAT,2015-058L,2026-07-01T03:31:30.203040,15.16564131,.0080659,64.7579,128.4987,41.5256,319.1958,0,U,40974,999,11773,.95517E-3,.2021E-3,0
SNAP-3 JIMI,2015-058M,2026-07-01T02:26:13.038720,15.02439282,.0106942,64.7628,175.7433,49.7900,311.2515,0,U,40975,999,11631,.54214E-3,.7987E-4,0
PROPCUBE 1 (FLORA),2015-058N,2026-06-30T15:01:46.658208,14.89274373,.0131511,64.7744,253.5838,55.6868,305.6608,0,U,40976,999,11826,.17838906E-3,.1815E-4,0
SINOD-D 3,2015-058P,2026-06-30T11:51:58.833216,14.94086768,.01200348,64.7711,234.2631,52.8555,308.3450,0,U,40977,999,11674,.23486741E-3,.272E-4,0
HORYU-4,2016-012D,2026-07-01T02:47:19.212576,16.22032858,.0009826,30.9802,335.3658,346.1695,13.8704,0,U,41340,999,57305,.12696E-2,.3107806E-1,-.38471E-5
RAVAN,2016-067B,2026-07-01T03:12:12.873312,15.56066980,.0002065,97.9870,73.3297,331.4556,28.6583,0,U,41849,999,52986,.10967E-2,.76979E-3,0
CELTEE 1,2016-067C,2026-06-30T13:45:10.095264,15.19809479,.00016752,98.0655,49.0530,127.0144,233.1243,0,U,41850,999,52791,.25791235E-3,.5447E-4,0
OPTICUBE 04,2016-067D,2026-07-01T03:08:02.423040,15.09721395,.0016945,98.0684,35.1411,72.4057,287.9020,0,U,41851,999,52727,.1944E-3,.3073E-4,0
AEROCUBE 8D,2016-067E,2026-07-01T03:16:17.641056,15.24592466,.0005026,98.0661,53.3690,90.4991,269.6821,0,U,41852,999,52819,.41097E-3,.10058E-3,0
AEROCUBE 8C,2016-067F,2026-06-30T04:11:31.643520,15.24825427,.00057492,98.0539,49.5454,32.4331,327.7257,0,U,41853,999,52804,.28522161E-3,.7002E-4,0
CORVUS BC2,2017-042X,2026-06-30T09:56:15.662688,15.06373686,.00143013,97.4068,342.2504,69.6054,290.6709,0,U,42846,999,48905,.20104795E-3,.2906E-4,0
CORVUS BC1,2017-042Y,2026-07-01T00:07:11.627616,15.06544991,.0012658,97.4105,343.6415,46.1860,314.0412,0,U,42847,999,48917,.29071E-3,.4247E-4,0
MAKERSAT 0,2017-073D,2026-06-30T15:10:48.593568,15.32524682,.01048803,97.4604,64.2588,224.3337,134.9472,0,U,43016,999,46852,.45771191E-3,.17054E-3,0
